<?xml version="1.0" encoding="UTF-8"?>
<ndm xmlns:xsi="http://www.w3.org/2001/XMLSchema-instance" xsi:noNamespaceSchemaLocation="https://sanaregistry.org/r/ndmxml_unqualified/ndmxml-2.0.0-master-2.0.xsd">
<omm id="CCSDS_OMM_VERS" version="2.0">
<header><CREATION_DATE/><ORIGINATOR/></header><body><segment><metadata><OBJECT_NAME>ORBCOMM-X [-]</OBJECT_NAME><OBJECT_ID>1991-050C</OBJECT_ID><CENTER_NAME>EARTH</CENTER_NAME><REF_FRAME>TEME</REF_FRAME><TIME_SYSTEM>UTC</TIME_SYSTEM><MEAN_ELEMENT_THEORY>SGP4</MEAN_ELEMENT_THEORY></metadata><data><meanElements><EPOCH>2023-10-02T11:07:06.604032</EPOCH><MEAN_MOTION>14.42190871</MEAN_MOTION><ECCENTRICITY>.0002487</ECCENTRICITY><INCLINATION>98.4248</INCLINATION><RA_OF_ASC_NODE>341.4667</RA_OF_ASC_NODE><ARG_OF_PERICENTER>267.6964</ARG_OF_PERICENTER><MEAN_ANOMALY>92.3941</MEAN_ANOMALY></meanElements><tleParameters><EPHEMERIS_TYPE>0</EPHEMERIS_TYPE><CLASSIFICATION_TYPE>U</CLASSIFICATION_TYPE><NORAD_CAT_ID>21576</NORAD_CAT_ID><ELEMENT_SET_NO>999</ELEMENT_SET_NO><REV_AT_EPOCH>69240</REV_AT_EPOCH><BSTAR>.2052E-3</BSTAR><MEAN_MOTION_DOT>.632E-5</MEAN_MOTION_DOT><MEAN_MOTION_DDOT>0</MEAN_MOTION_DDOT></tleParameters></data></segment></body></omm>
<omm id="CCSDS_OMM_VERS" version="2.0">
<header><CREATION_DATE/><ORIGINATOR/></header><body><segment><metadata><OBJECT_NAME>ORBCOMM FM01 [-]</OBJECT_NAME><OBJECT_ID>1995-017A</OBJECT_ID><CENTER_NAME>EARTH</CENTER_NAME><REF_FRAME>TEME</REF_FRAME><TIME_SYSTEM>UTC</TIME_SYSTEM><MEAN_ELEMENT_THEORY>SGP4</MEAN_ELEMENT_THEORY></metadata><data><meanElements><EPOCH>2023-10-02T03:41:48.154848</EPOCH><MEAN_MOTION>14.76631814</MEAN_MOTION><ECCENTRICITY>.0006266</ECCENTRICITY><INCLINATION>69.9689</INCLINATION><RA_OF_ASC_NODE>172.0476</RA_OF_ASC_NODE><ARG_OF_PERICENTER>211.9230</ARG_OF_PERICENTER><MEAN_ANOMALY>148.1539</MEAN_ANOMALY></meanElements><tleParameters><EPHEMERIS_TYPE>0</EPHEMERIS_TYPE><CLASSIFICATION_TYPE>U</CLASSIFICATION_TYPE><NORAD_CAT_ID>23545</NORAD_CAT_ID><ELEMENT_SET_NO>999</ELEMENT_SET_NO><REV_AT_EPOCH>52036</REV_AT_EPOCH><BSTAR>.11602E-2</BSTAR><MEAN_MOTION_DOT>.8054E-4</MEAN_MOTION_DOT><MEAN_MOTION_DDOT>0</MEAN_MOTION_DDOT></tleParameters></data></segment></body></omm>
<omm id="CCSDS_OMM_VERS" version="2.0">
<header><CREATION_DATE/><ORIGINATOR/></header><body><segment><metadata><OBJECT_NAME>ORBCOMM FM02 [-]</OBJECT_NAME><OBJECT_ID>1995-017B</OBJECT_ID><CENTER_NAME>EARTH</CENTER_NAME><REF_FRAME>TEME</REF_FRAME><TIME_SYSTEM>UTC</TIME_SYSTEM><MEAN_ELEMENT_THEORY>SGP4</MEAN_ELEMENT_THEORY></metadata><data><meanElements><EPOCH>2023-10-02T20:46:16.101696</EPOCH><MEAN_MOTION>14.76145739</MEAN_MOTION><ECCENTRICITY>.0007555</ECCENTRICITY><INCLINATION>69.9710</INCLINATION><RA_OF_ASC_NODE>189.3290</RA_OF_ASC_NODE><ARG_OF_PERICENTER>198.4039</ARG_OF_PERICENTER><MEAN_ANOMALY>161.6837</MEAN_ANOMALY></meanElements><tleParameters><EPHEMERIS_TYPE>0</EPHEMERIS_TYPE><CLASSIFICATION_TYPE>U</CLASSIFICATION_TYPE><NORAD_CAT_ID>23546</NORAD_CAT_ID><ELEMENT_SET_NO>999</ELEMENT_SET_NO><REV_AT_EPOCH>52007</REV_AT_EPOCH><BSTAR>.1163E-2</BSTAR><MEAN_MOTION_DOT>.7983E-4</MEAN_MOTION_DOT><MEAN_MOTION_DDOT>0</MEAN_MOTION_DDOT></tleParameters></data></segment></body></omm>
<omm id="CCSDS_OMM_VERS" version="2.0">
<header><CREATION_DATE/><ORIGINATOR/></header><body><segment><metadata><OBJECT_NAME>ORBCOMM FM08 [-]</OBJECT_NAME><OBJECT_ID>1997-084A</OBJECT_ID><CENTER_NAME>EARTH</CENTER_NAME><REF_FRAME>TEME</REF_FRAME><TIME_SYSTEM>UTC</TIME_SYSTEM><MEAN_ELEMENT_THEORY>SGP4</MEAN_ELEMENT_THEORY></metadata><data><meanElements><EPOCH>2023-10-02T20:37:11.284032</EPOCH><MEAN_MOTION>14.41300351</MEAN_MOTION><ECCENTRICITY>.0007044</ECCENTRICITY><INCLINATION>45.0133</INCLINATION><RA_OF_ASC_NODE>108.6141</RA_OF_ASC_NODE><ARG_OF_PERICENTER>345.5064</ARG_OF_PERICENTER><MEAN_ANOMALY>14.5583</MEAN_ANOMALY></meanElements><tleParameters><EPHEMERIS_TYPE>0</EPHEMERIS_TYPE><CLASSIFICATION_TYPE>U</CLASSIFICATION_TYPE><NORAD_CAT_ID>25112</NORAD_CAT_ID><ELEMENT_SET_NO>999</ELEMENT_SET_NO><REV_AT_EPOCH>35148</REV_AT_EPOCH><BSTAR>.83461E-3</BSTAR><MEAN_MOTION_DOT>.2583E-4</MEAN_MOTION_DOT><MEAN_MOTION_DDOT>0</MEAN_MOTION_DDOT></tleParameters></data></segment></body></omm>
<omm id="CCSDS_OMM_VERS" version="2.0">
<header><CREATION_DATE/><ORIGINATOR/></header><body><segment><metadata><OBJECT_NAME>ORBCOMM FM10 [-]</OBJECT_NAME><OBJECT_ID>1997-084B</OBJECT_ID><CENTER_NAME>EARTH</CENTER_NAME><REF_FRAME>TEME</REF_FRAME><TIME_SYSTEM>UTC</TIME_SYSTEM><MEAN_ELEMENT_THEORY>SGP4</MEAN_ELEMENT_THEORY></metadata><data><meanElements><EPOCH>2023-10-02T20:31:34.506336</EPOCH><MEAN_MOTION>14.41243809</MEAN_MOTION><ECCENTRICITY>.0004651</ECCENTRICITY><INCLINATION>45.0146</INCLINATION><RA_OF_ASC_NODE>110.3451</RA_OF_ASC_NODE><ARG_OF_PERICENTER>314.9665</ARG_OF_PERICENTER><MEAN_ANOMALY>45.0807</MEAN_ANOMALY></meanElements><tleParameters><EPHEMERIS_TYPE>0</EPHEMERIS_TYPE><CLASSIFICATION_TYPE>U</CLASSIFICATION_TYPE><NORAD_CAT_ID>25113</NORAD_CAT_ID><ELEMENT_SET_NO>999</ELEMENT_SET_NO><REV_AT_EPOCH>35147</REV_AT_EPOCH><BSTAR>.75362E-3</BSTAR><MEAN_MOTION_DOT>.2315E-4</MEAN_MOTION_DOT><MEAN_MOTION_DDOT>0</MEAN_MOTION_DDOT></tleParameters></data></segment></body></omm>
<omm id="CCSDS_OMM_VERS" version="2.0">
<header><CREATION_DATE/><ORIGINATOR/></header><body><segment><metadata><OBJECT_NAME>ORBCOMM FM11 [+]</OBJECT_NAME><OBJECT_ID>1997-084C</OBJECT_ID><CENTER_NAME>EARTH</CENTER_NAME><REF_FRAME>TEME</REF_FRAME><TIME_SYSTEM>UTC</TIME_SYSTEM><MEAN_ELEMENT_THEORY>SGP4</MEAN_ELEMENT_THEORY></metadata><data><meanElements><EPOCH>2023-10-02T08:54:31.548672</EPOCH><MEAN_MOTION>14.41127300</MEAN_MOTION><ECCENTRICITY>.0005423</ECCENTRICITY><INCLINATION>45.0132</INCLINATION><RA_OF_ASC_NODE>112.5535</RA_OF_ASC_NODE><ARG_OF_PERICENTER>313.1609</ARG_OF_PERICENTER><MEAN_ANOMALY>46.8787</MEAN_ANOMALY></meanElements><tleParameters><EPHEMERIS_TYPE>0</EPHEMERIS_TYPE><CLASSIFICATION_TYPE>U</CLASSIFICATION_TYPE><NORAD_CAT_ID>25114</NORAD_CAT_ID><ELEMENT_SET_NO>999</ELEMENT_SET_NO><REV_AT_EPOCH>35139</REV_AT_EPOCH><BSTAR>.83847E-3</BSTAR><MEAN_MOTION_DOT>.2585E-4</MEAN_MOTION_DOT><MEAN_MOTION_DDOT>0</MEAN_MOTION_DDOT></tleParameters></data></segment></body></omm>
<omm id="CCSDS_OMM_VERS" version="2.0">
<header><CREATION_DATE/><ORIGINATOR/></header><body><segment><metadata><OBJECT_NAME>ORBCOMM FM12 [-]</OBJECT_NAME><OBJECT_ID>1997-084D</OBJECT_ID><CENTER_NAME>EARTH</CENTER_NAME><REF_FRAME>TEME</REF_FRAME><TIME_SYSTEM>UTC</TIME_SYSTEM><MEAN_ELEMENT_THEORY>SGP4</MEAN_ELEMENT_THEORY></metadata><data><meanElements><EPOCH>2023-10-02T19:30:05.457888</EPOCH><MEAN_MOTION>14.41120378</MEAN_MOTION><ECCENTRICITY>.0004407</ECCENTRICITY><INCLINATION>45.0140</INCLINATION><RA_OF_ASC_NODE>110.0908</RA_OF_ASC_NODE><ARG_OF_PERICENTER>316.3287</ARG_OF_PERICENTER><MEAN_ANOMALY>43.7214</MEAN_ANOMALY></meanElements><tleParameters><EPHEMERIS_TYPE>0</EPHEMERIS_TYPE><CLASSIFICATION_TYPE>U</CLASSIFICATION_TYPE><NORAD_CAT_ID>25115</NORAD_CAT_ID><ELEMENT_SET_NO>999</ELEMENT_SET_NO><REV_AT_EPOCH>35146</REV_AT_EPOCH><BSTAR>.75035E-3</BSTAR><MEAN_MOTION_DOT>.2298E-4</MEAN_MOTION_DOT><MEAN_MOTION_DDOT>0</MEAN_MOTION_DDOT></tleParameters></data></segment></body></omm>
<omm id="CCSDS_OMM_VERS" version="2.0">
<header><CREATION_DATE/><ORIGINATOR/></header><body><segment><metadata><OBJECT_NAME>ORBCOMM FM09 [-]</OBJECT_NAME><OBJECT_ID>1997-084E</OBJECT_ID><CENTER_NAME>EARTH</CENTER_NAME><REF_FRAME>TEME</REF_FRAME><TIME_SYSTEM>UTC</TIME_SYSTEM><MEAN_ELEMENT_THEORY>SGP4</MEAN_ELEMENT_THEORY></metadata><data><meanElements><EPOCH>2023-10-02T16:20:03.947136</EPOCH><MEAN_MOTION>14.41101934</MEAN_MOTION><ECCENTRICITY>.0005575</ECCENTRICITY><INCLINATION>45.0143</INCLINATION><RA_OF_ASC_NODE>111.3494</RA_OF_ASC_NODE><ARG_OF_PERICENTER>297.6638</ARG_OF_PERICENTER><MEAN_ANOMALY>62.3646</MEAN_ANOMALY></meanElements><tleParameters><EPHEMERIS_TYPE>0</EPHEMERIS_TYPE><CLASSIFICATION_TYPE>U</CLASSIFICATION_TYPE><NORAD_CAT_ID>25116</NORAD_CAT_ID><ELEMENT_SET_NO>999</ELEMENT_SET_NO><REV_AT_EPOCH>35144</REV_AT_EPOCH><BSTAR>.80904E-3</BSTAR><MEAN_MOTION_DOT>.2488E-4</MEAN_MOTION_DOT><MEAN_MOTION_DDOT>0</MEAN_MOTION_DDOT></tleParameters></data></segment></body></omm>

</ndm>
